[{"OBJECT_NAME":"NINGXIA-1 9","OBJECT_ID":"2021-064D","EPOCH":"2026-03-09T22:22:33.329280","MEAN_MOTION":14.08541534,"ECCENTRICITY":0.00078366,"INCLINATION":45.0035,"RA_OF_ASC_NODE":315.3923,"ARG_OF_PERICENTER":140.8679,"MEAN_ANOMALY":219.2725,"EPHEMERIS_TYPE":0,"CLASSIFICATION_TYPE":"U","NORAD_CAT_ID":49021,"ELEMENT_SET_NO":999,"REV_AT_EPOCH":24023,"BSTAR":1.224568e-5,"MEAN_MOTION_DOT":-1.11e-6,"MEAN_MOTION_DDOT":0},{"OBJECT_NAME":"CZ-6A DEB","OBJECT_ID":"2022-151W","EPOCH":"2026-03-09T11:20:27.951936","MEAN_MOTION":14.3151551,"ECCENTRICITY":0.01385503,"INCLINATION":98.6195,"RA_OF_ASC_NODE":83.6247,"ARG_OF_PERICENTER":4.6293,"MEAN_ANOMALY":355.6136,"EPHEMERIS_TYPE":0,"CLASSIFICATION_TYPE":"U","NORAD_CAT_ID":54279,"ELEMENT_SET_NO":999,"REV_AT_EPOCH":17284,"BSTAR":0.00049999022,"MEAN_MOTION_DOT":1.43e-5,"MEAN_MOTION_DDOT":0}]
